NORAD_CAT_ID,OBJECT_NAME,OBJECT_TYPE,EPOCH,MEAN_MOTION,ECCENTRICITY,INCLINATION,RA_OF_ASC_NODE,ARG_OF_PERICENTER,MEAN_ANOMALY,BSTAR,MEAN_MOTION_DOT,MEAN_MOTION_DDOT,TLE_LINE0,TLE_LINE1,TLE_LINE2,SEMIMAJOR_AXIS,PERIOD,APOGEE,PERIGEE,DECAYED
53895.0,STARLINK-5032,PAYLOAD,2023-07-09 13:10:41,15.08833112,0.0001161,53.219,17.1268,99.2508,260.8616,-6.13e-05,-1.263e-05,0.0,0 STARLINK-5032,1 53895U 22119K   23190.54908701 -.00001263  00000-0 -61300-4 0  9992,2 53895  53.2190  17.1268 0001161  99.2508 260.8616 15.08833112 44200,6917.901,95.438,540.57,538.963,0.0
53895.0,STARLINK-5032,PAYLOAD,2023-07-10 13:01:28,15.08834936,0.0001409,53.2189,12.6655,104.9397,255.1752,3.1805e-05,2.18e-06,0.0,0 STARLINK-5032,1 53895U 22119K   23191.54268531  .00000218  00000-0  31805-4 0  9997,2 53895  53.2189  12.6655 0001409 104.9397 255.1752 15.08834936 44352,6917.896,95.438,540.736,538.786,0.0
53895.0,STARLINK-5032,PAYLOAD,2023-07-11 22:24:33,15.08836693,0.0001085,53.2183,6.4205,89.6151,270.4966,2.7691e-05,1.53e-06,0.0,0 STARLINK-5032,1 53895U 22119K   23192.93372615  .00000153  00000-0  27691-4 0  9996,2 53895  53.2183   6.4205 0001085  89.6151 270.4966 15.08836693 44567,6917.89,95.438,540.506,539.005,0.0
53895.0,STARLINK-5032,PAYLOAD,2023-07-13 17:19:58,15.08835214,0.0001042,53.2185,358.3909,89.966,270.1451,1.7239e-05,-1.3e-07,0.0,0 STARLINK-5032,1 53895U 22119K   23194.72220818 -.00000013  00000-0  17239-4 0  9995,2 53895  53.2185 358.3909 0001042  89.9660 270.1451 15.08835214 44834,6917.895,95.438,540.481,539.039,0.0
53895.0,STARLINK-5032,PAYLOAD,2023-07-14 17:10:45,15.08843653,0.0001084,53.2178,353.9308,92.0845,268.0272,5.4764e-05,5.84e-06,0.0,0 STARLINK-5032,1 53895U 22119K   23195.71580155  .00000584  00000-0  54764-4 0  9994,2 53895  53.2178 353.9308 0001084  92.0845 268.0272 15.08843653 44985,6917.869,95.437,540.484,538.984,0.0
53895.0,STARLINK-5032,PAYLOAD,2023-07-15 10:40:00,15.08832613,0.0001051,53.2179,350.6596,98.2064,261.9047,-1.0713e-05,-4.58e-06,0.0,0 STARLINK-5032,1 53895U 22119K   23196.44445019 -.00000458  00000-0 -10713-4 0  9992,2 53895  53.2179 350.6596 0001051  98.2064 261.9047 15.08832613 45093,6917.903,95.438,540.495,539.041,0.0
53895.0,STARLINK-5032,PAYLOAD,2023-07-15 21:47:41,15.08844159,0.0001034,53.218,348.5797,88.2747,271.8364,1.6447e-05,-2.6e-07,0.0,0 STARLINK-5032,1 53895U 22119K   23196.90812310 -.00000026  00000-0  16447-4 0  9995,2 53895  53.2180 348.5797 0001034  88.2747 271.8364 15.08844159 45160,6917.868,95.437,540.448,539.017,0.0
53895.0,STARLINK-5032,PAYLOAD,2023-07-16 10:30:48,15.08832691,0.0001331,53.2183,346.1997,85.3498,274.7646,-7.0538e-05,-1.41e-05,0.0,0 STARLINK-5032,1 53895U 22119K   23197.43805569 -.00001410  00000-0 -70538-4 0  9992,2 53895  53.2183 346.1997 0001331  85.3498 274.7646 15.08832691 45242,6917.903,95.438,540.689,538.847,0.0
53895.0,STARLINK-5032,PAYLOAD,2023-07-16 21:38:29,15.08842479,0.000116,53.2187,344.118,95.2486,264.8639,-6.6103e-06,-3.93e-06,0.0,0 STARLINK-5032,1 53895U 22119K   23197.90172799 -.00000393  00000-0 -66103-5 0  9999,2 53895  53.2187 344.1180 0001160  95.2486 264.8639 15.08842479 45310,6917.873,95.437,540.54,538.935,0.0
53895.0,STARLINK-5032,PAYLOAD,2023-07-17 10:21:35,15.08832523,0.0001121,53.2185,341.7386,90.3616,269.7504,-1.5473e-05,-5.34e-06,0.0,0 STARLINK-5032,1 53895U 22119K   23198.43165639 -.00000534  00000-0 -15473-4 0  9993,2 53895  53.2185 341.7386 0001121  90.3616 269.7504 15.08832523 45399,6917.903,95.438,540.544,538.993,0.0
53895.0,STARLINK-5032,PAYLOAD,2023-07-17 16:43:06,15.088422,0.0001128,53.2189,340.5507,85.1282,274.9839,5.873e-05,6.47e-06,0.0,0 STARLINK-5032,1 53895U 22119K   23198.69660811  .00000647  00000-0  58730-4 0  9999,2 53895  53.2189 340.5507 0001128  85.1282 274.9839 15.08842200 45430,6917.874,95.437,540.519,538.958,0.0
53895.0,STARLINK-5032,PAYLOAD,2023-07-18 18:09:16,15.08848841,0.0001429,53.2196,335.7911,76.2465,283.8686,6.3803e-05,7.28e-06,0.0,0 STARLINK-5032,1 53895U 22119K   23199.75644489  .00000728  00000-0  63803-4 0  9997,2 53895  53.2196 335.7911 0001429  76.2465 283.8686 15.08848841 45594,6917.853,95.437,540.707,538.73,0.0
53895.0,STARLINK-5032,PAYLOAD,2023-07-19 08:27:46,15.08825291,0.0001107,53.2195,333.1169,88.4698,271.6421,-3.3892e-05,-8.27e-06,0.0,0 STARLINK-5032,1 53895U 22119K   23200.35262415 -.00000827  00000-0 -33892-4 0  9998,2 53895  53.2195 333.1169 0001107  88.4698 271.6421 15.08825291 45682,6917.925,95.438,540.556,539.025,0.0
53895.0,STARLINK-5032,PAYLOAD,2023-07-19 18:00:05,15.08834527,0.0001217,53.2193,331.3318,102.2998,257.8131,-8.0817e-05,-1.574e-05,0.0,0 STARLINK-5032,1 53895U 22119K   23200.75006178 -.00001574  00000-0 -80817-4 0  9993,2 53895  53.2193 331.3318 0001217 102.2998 257.8131 15.08834527 45749,6917.897,95.438,540.604,538.92,0.0
53895.0,STARLINK-5032,PAYLOAD,2023-07-20 16:15:28,15.08847363,0.000106,53.2181,327.1678,103.0795,257.0316,-4.4315e-05,-9.93e-06,0.0,0 STARLINK-5032,1 53895U 22119K   23201.67741315 -.00000993  00000-0 -44315-4 0  9991,2 53895  53.2181 327.1678 0001060 103.0795 257.0316 15.08847363 45882,6917.858,95.437,540.456,538.99,0.0
53895.0,STARLINK-5032,PAYLOAD,2023-07-21 08:09:19,15.08837545,0.000113,53.2181,324.1937,108.3464,251.7651,8.0267e-05,9.9e-06,0.0,0 STARLINK-5032,1 53895U 22119K   23202.33981444  .00000990  00000-0  80267-4 0  9995,2 53895  53.2181 324.1937 0001130 108.3464 251.7651 15.08837545 45981,6917.888,95.438,540.535,538.971,0.0
53895.0,STARLINK-5032,PAYLOAD,2023-07-21 16:06:15,15.08844242,0.0001172,53.218,322.7077,104.3824,255.7299,0.00013607,1.879e-05,0.0,0 STARLINK-5032,1 53895U 22119K   23202.67100772  .00001879  00000-0  13607-3 0  9999,2 53895  53.2180 322.7077 0001172 104.3824 255.7299 15.08844242 46032,6917.867,95.437,540.543,538.922,0.0
53895.0,STARLINK-5032,PAYLOAD,2023-07-24 07:41:41,15.0883783,0.0001416,53.2188,310.8086,112.3199,247.7944,3.7524e-05,3.09e-06,0.0,0 STARLINK-5032,1 53895U 22119K   23205.32061580  .00000309  00000-0  37524-4 0  9999,2 53895  53.2188 310.8086 0001416 112.3199 247.7944 15.08837830 46856,6917.887,95.438,540.732,538.772,0.0
53895.0,STARLINK-5032,PAYLOAD,2023-07-25 12:18:38,15.08831171,0.0001173,53.2177,305.4583,105.9432,254.169,-2.3638e-05,-6.64e-06,0.0,0 STARLINK-5032,1 53895U 22119K   23206.51294512 -.00000664  00000-0 -23638-4 0  9991,2 53895  53.2177 305.4583 0001173 105.9432 254.1690 15.08831171 47037,6917.907,95.438,540.584,538.961,0.0
53895.0,STARLINK-5032,PAYLOAD,2023-07-25 15:29:24,15.0883413,0.0001084,53.2182,304.8639,96.663,263.4486,-4.44e-06,-3.58e-06,0.0,0 STARLINK-5032,1 53895U 22119K   23206.64542335 -.00000358  00000-0 -44400-5 0  9995,2 53895  53.2182 304.8639 0001084  96.6630 263.4486 15.08834130 47051,6917.898,95.438,540.513,539.013,0.0
53895.0,STARLINK-5032,PAYLOAD,2023-07-26 23:17:06,15.08837425,9.85e-05,53.2177,298.918,86.7612,273.3493,8.9039e-05,1.129e-05,0.0,0 STARLINK-5032,1 53895U 22119K   23207.97021745  .00001129  00000-0  89039-4 0  9990,2 53895  53.2177 298.9180 0000985  86.7612 273.3493 15.08837425 46831,6917.888,95.438,540.435,539.072,0.0
53895.0,STARLINK-5032,PAYLOAD,2023-07-27 07:14:03,15.08833165,0.0001195,53.2179,297.4333,89.0959,271.0171,-7.2932e-06,-4.04e-06,0.0,0 STARLINK-5032,1 53895U 22119K   23208.30142570 -.00000404  00000-0 -72932-5 0  9990,2 53895  53.2179 297.4333 0001195  89.0959 271.0171 15.08833165 46881,6917.901,95.438,540.593,538.94,0.0
53895.0,STARLINK-5032,PAYLOAD,2023-07-28 05:29:27,15.08841935,0.0001168,53.2155,293.2684,85.1752,274.9373,-0.00011285,-2.083e-05,0.0,0 STARLINK-5032,1 53895U 22119K   23209.22878771 -.00002083  00000-0 -11285-3 0  9998,2 53895  53.2155 293.2684 0001168  85.1752 274.9373 15.08841935 47449,6917.874,95.437,540.547,538.931,0.0
53895.0,STARLINK-5032,PAYLOAD,2023-07-28 15:01:46,15.08840045,0.0001237,53.2157,291.4843,80.907,279.2062,-0.00010641,-1.981e-05,0.0,0 STARLINK-5032,1 53895U 22119K   23209.62622853 -.00001981  00000-0 -10641-3 0  9991,2 53895  53.2157 291.4843 0001237  80.9070 279.2062 15.08840045 47085,6917.88,95.438,540.601,538.89,0.0
53895.0,STARLINK-5032,PAYLOAD,2023-07-29 10:06:22,15.08843544,0.0001349,53.2155,287.9158,84.5848,275.5298,9.6476e-05,1.248e-05,0.0,0 STARLINK-5032,1 53895U 22119K   23210.42109837  .00001248  00000-0  96476-4 0  9998,2 53895  53.2155 287.9158 0001349  84.5848 275.5298 15.08843544 47200,6917.87,95.437,540.668,538.801,0.0
53895.0,STARLINK-5032,PAYLOAD,2023-07-29 16:27:54,15.08850052,0.0001238,53.2166,286.7277,78.7545,281.3586,0.00011382,1.525e-05,0.0,0 STARLINK-5032,1 53895U 22119K   23210.68605274  .00001525  00000-0  11382-3 0  9992,2 53895  53.2166 286.7277 0001238  78.7545 281.3586 15.08850052 47248,6917.85,95.437,540.571,538.858,0.0
53895.0,STARLINK-5032,PAYLOAD,2023-07-30 09:57:10,15.08832068,0.0001277,53.2163,283.4578,75.3898,284.7236,1.2992e-05,-8.1e-07,0.0,0 STARLINK-5032,1 53895U 22119K   23211.41470888 -.00000081  00000-0  12992-4 0  9991,2 53895  53.2163 283.4578 0001277  75.3898 284.7236 15.08832068 47358,6917.905,95.438,540.653,538.886,0.0
53895.0,STARLINK-5032,PAYLOAD,2023-07-31 09:47:57,15.08844593,0.0001242,53.2167,278.9961,83.0705,277.0428,-1.0961e-05,-4.62e-06,0.0,0 STARLINK-5032,1 53895U 22119K   23212.40830158 -.00000462  00000-0 -10961-4 0  9999,2 53895  53.2167 278.9961 0001242  83.0705 277.0428 15.08844593 47503,6917.866,95.437,540.591,538.872,0.0
53895.0,STARLINK-5032,PAYLOAD,2023-07-31 16:09:29,15.08851645,0.0001485,53.2169,277.8067,117.1625,242.9518,8.1725e-06,-1.58e-06,0.0,0 STARLINK-5032,1 53895U 22119K   23212.67325426 -.00000158  00000-0  81725-5 0  9993,2 53895  53.2169 277.8067 0001485 117.1625 242.9518 15.08851645 47540,6917.845,95.437,540.737,538.682,0.0
53895.0,STARLINK-5032,PAYLOAD,2023-08-01 00:06:26,15.08824575,0.0001037,53.2167,276.3201,89.4574,270.6537,-3.0914e-05,-7.79e-06,0.0,0 STARLINK-5032,1 53895U 22119K   23213.00447262 -.00000779  00000-0 -30914-4 0  9997,2 53895  53.2167 276.3201 0001037  89.4574 270.6537 15.08824575 47595,6917.928,95.439,540.51,539.075,0.0
